{
  "type": "FeatureCollection",
  "features": [
    {
      "type": "Feature",
      "properties": {
        "norad_id": 30768,
        "name": "FENGYUN 1C DEB",
        "group": "fengyun-1c-debris",
        "lat": 79.7357929073167,
        "lon": 30.5549636780475,
        "alt_km": 707.9762227411775,
        "timestamp": "2025-12-23T11:34:48.442035+00:00",
        "meta_object_name": "FENGYUN 1C DEB",
        "meta_object_id": "1999-025AUE",
        "meta_epoch": "2025-12-20T17:33:22.014720",
        "meta_mean_motion": 14.48003389,
        "meta_eccentricity": 0.00244915,
        "meta_inclination": 98.618,
        "meta_ra_of_asc_node": 84.6267,
        "meta_arg_of_pericenter": 76.4417,
        "meta_mean_anomaly": 75.6465,
        "meta_ephemeris_type": 0,
        "meta_classification_type": "U",
        "meta_norad_cat_id": 30768,
        "meta_element_set_no": 999,
        "meta_rev_at_epoch": 97986,
        "meta_bstar": 0.0012175144,
        "meta_mean_motion_dot": 4.494e-05,
        "meta_mean_motion_ddot": 0,
        "tle_line1": "1 30768U 99025AUE 25354.73150480  .00004494  00000+0  12175-2 0  9994",
        "tle_line2": "2 30768  98.6180  84.6267 0024491  76.4417  75.6465 14.48003389979862"
      },
      "geometry": {
        "type": "Point",
        "coordinates": [
          30.5549636780475,
          79.7357929073167
        ]
      }
    },
    {
      "type": "Feature",
      "properties": {
        "norad_id": 30770,
        "name": "FENGYUN 1C DEB",
        "group": "fengyun-1c-debris",
        "lat": 19.440282465618587,
        "lon": -173.6973530075002,
        "alt_km": 840.4983300975155,
        "timestamp": "2025-12-23T11:34:48.442044+00:00",
        "meta_object_name": "FENGYUN 1C DEB",
        "meta_object_id": "1999-025AUG",
        "meta_epoch": "2025-12-22T13:19:45.289056",
        "meta_mean_motion": 14.15694815,
        "meta_eccentricity": 0.00127734,
        "meta_inclination": 98.6543,
        "meta_ra_of_asc_node": 2.3211,
        "meta_arg_of_pericenter": 255.861,
        "meta_mean_anomaly": 222.0918,
        "meta_ephemeris_type": 0,
        "meta_classification_type": "U",
        "meta_norad_cat_id": 30770,
        "meta_element_set_no": 999,
        "meta_rev_at_epoch": 97046,
        "meta_bstar": 0.00024656662,
        "meta_mean_motion_dot": 4.41e-06,
        "meta_mean_motion_ddot": 0,
        "tle_line1": "1 30770U 99025AUG 25356.55538529  .00000441  00000+0  24657-3 0  9990",
        "tle_line2": "2 30770  98.6543   2.3211 0012773 255.8610 222.0918 14.15694815970464"
      },
      "geometry": {
        "type": "Point",
        "coordinates": [
          -173.6973530075002,
          19.440282465618587
        ]
      }
    },
    {
      "type": "Feature",
      "properties": {
        "norad_id": 30771,
        "name": "FENGYUN 1C DEB",
        "group": "fengyun-1c-debris",
        "lat": -25.940642235555718,
        "lon": 148.81127640499403,
        "alt_km": 745.5687648542407,
        "timestamp": "2025-12-23T11:34:48.442053+00:00",
        "meta_object_name": "FENGYUN 1C DEB",
        "meta_object_id": "1999-025AUH",
        "meta_epoch": "2025-12-22T11:19:57.659232",
        "meta_mean_motion": 14.43315606,
        "meta_eccentricity": 0.0022325,
        "meta_inclination": 98.9061,
        "meta_ra_of_asc_node": 332.1302,
        "meta_arg_of_pericenter": 270.9076,
        "meta_mean_anomaly": 88.9555,
        "meta_ephemeris_type": 0,
        "meta_classification_type": "U",
        "meta_norad_cat_id": 30771,
        "meta_element_set_no": 999,
        "meta_rev_at_epoch": 97204,
        "meta_bstar": 0.0025187478,
        "meta_mean_motion_dot": 8.476e-05,
        "meta_mean_motion_ddot": 0,
        "tle_line1": "1 30771U 99025AUH 25356.47219513  .00008476  00000+0  25187-2 0  9995",
        "tle_line2": "2 30771  98.9061 332.1302 0022325 270.9076  88.9555 14.43315606972047"
      },
      "geometry": {
        "type": "Point",
        "coordinates": [
          148.81127640499403,
          -25.940642235555718
        ]
      }
    },
    {
      "type": "Feature",
      "properties": {
        "norad_id": 30802,
        "name": "FENGYUN 1C DEB",
        "group": "fengyun-1c-debris",
        "lat": -77.6299611724772,
        "lon": 129.66247198290455,
        "alt_km": 790.6010061017769,
        "timestamp": "2025-12-23T11:34:48.442062+00:00",
        "meta_object_name": "FENGYUN 1C DEB",
        "meta_object_id": "1999-025AUL",
        "meta_epoch": "2025-12-21T04:46:44.859648",
        "meta_mean_motion": 14.3251891,
        "meta_eccentricity": 0.00176283,
        "meta_inclination": 98.8374,
        "meta_ra_of_asc_node": 82.1518,
        "meta_arg_of_pericenter": 15.5568,
        "meta_mean_anomaly": 14.4616,
        "meta_ephemeris_type": 0,
        "meta_classification_type": "U",
        "meta_norad_cat_id": 30802,
        "meta_element_set_no": 999,
        "meta_rev_at_epoch": 97324,
        "meta_bstar": 0.0011058315,
        "meta_mean_motion_dot": 2.958e-05,
        "meta_mean_motion_ddot": 0,
        "tle_line1": "1 30802U 99025AUL 25355.19913032  .00002958  00000+0  11058-2 0  9996",
        "tle_line2": "2 30802  98.8374  82.1518 0017628  15.5568  14.4616 14.32518910973244"
      },
      "geometry": {
        "type": "Point",
        "coordinates": [
          129.66247198290455,
          -77.6299611724772
        ]
      }
    },
    {
      "type": "Feature",
      "properties": {
        "norad_id": 30803,
        "name": "FENGYUN 1C DEB",
        "group": "fengyun-1c-debris",
        "lat": 36.40159905163025,
        "lon": -142.12218856137412,
        "alt_km": 783.872377112184,
        "timestamp": "2025-12-23T11:34:48.442071+00:00",
        "meta_object_name": "FENGYUN 1C DEB",
        "meta_object_id": "1999-025AUM",
        "meta_epoch": "2025-12-22T01:00:59.351904",
        "meta_mean_motion": 14.11287813,
        "meta_eccentricity": 0.01076097,
        "meta_inclination": 99.2454,
        "meta_ra_of_asc_node": 29.4978,
        "meta_arg_of_pericenter": 175.7085,
        "meta_mean_anomaly": 214.9537,
        "meta_ephemeris_type": 0,
        "meta_classification_type": "U",
        "meta_norad_cat_id": 30803,
        "meta_element_set_no": 999,
        "meta_rev_at_epoch": 96130,
        "meta_bstar": 0.0011029016,
        "meta_mean_motion_dot": 2.057e-05,
        "meta_mean_motion_ddot": 0,
        "tle_line1": "1 30803U 99025AUM 25356.04235361  .00002057  00000+0  11029-2 0  9992",
        "tle_line2": "2 30803  99.2454  29.4978 0107609 175.7085 214.9537 14.11287813961300"
      },
      "geometry": {
        "type": "Point",
        "coordinates": [
          -142.12218856137412,
          36.40159905163025
        ]
      }
    },
    {
      "type": "Feature",
      "properties": {
        "norad_id": 30804,
        "name": "FENGYUN 1C DEB",
        "group": "fengyun-1c-debris",
        "lat": 43.74621651217226,
        "lon": 54.98056702161026,
        "alt_km": 757.294378336057,
        "timestamp": "2025-12-23T11:34:48.442080+00:00",
        "meta_object_name": "FENGYUN 1C DEB",
        "meta_object_id": "1999-025AUN",
        "meta_epoch": "2025-12-20T23:05:50.856288",
        "meta_mean_motion": 14.54645992,
        "meta_eccentricity": 0.0185848,
        "meta_inclination": 98.894,
        "meta_ra_of_asc_node": 60.9206,
        "meta_arg_of_pericenter": 165.6551,
        "meta_mean_anomaly": 11.2785,
        "meta_ephemeris_type": 0,
        "meta_classification_type": "U",
        "meta_norad_cat_id": 30804,
        "meta_element_set_no": 999,
        "meta_rev_at_epoch": 99596,
        "meta_bstar": 0.00032138,
        "meta_mean_motion_dot": 1.669e-05,
        "meta_mean_motion_ddot": 0,
        "tle_line1": "1 30804U 99025AUN 25354.96239417  .00001669  00000+0  32138-3 0  9991",
        "tle_line2": "2 30804  98.8940  60.9206 0185848 165.6551  11.2785 14.54645992995962"
      },
      "geometry": {
        "type": "Point",
        "coordinates": [
          54.98056702161026,
          43.74621651217226
        ]
      }
    },
    {
      "type": "Feature",
      "properties": {
        "norad_id": 30805,
        "name": "FENGYUN 1C DEB",
        "group": "fengyun-1c-debris",
        "lat": -1.600939401653225,
        "lon": 40.055676428679206,
        "alt_km": 899.4495847711187,
        "timestamp": "2025-12-23T11:34:48.442089+00:00",
        "meta_object_name": "FENGYUN 1C DEB",
        "meta_object_id": "1999-025AUP",
        "meta_epoch": "2025-12-22T21:01:43.362048",
        "meta_mean_motion": 14.02922685,
        "meta_eccentricity": 0.00705149,
        "meta_inclination": 98.8196,
        "meta_ra_of_asc_node": 39.2197,
        "meta_arg_of_pericenter": 255.4744,
        "meta_mean_anomaly": 281.7545,
        "meta_ephemeris_type": 0,
        "meta_classification_type": "U",
        "meta_norad_cat_id": 30805,
        "meta_element_set_no": 999,
        "meta_rev_at_epoch": 96102,
        "meta_bstar": 0.00095720986,
        "meta_mean_motion_dot": 1.474e-05,
        "meta_mean_motion_ddot": 0,
        "tle_line1": "1 30805U 99025AUP 25356.87619632  .00001474  00000+0  95721-3 0  9996",
        "tle_line2": "2 30805  98.8196  39.2197 0070514 255.4744 281.7545 14.02922685961027"
      },
      "geometry": {
        "type": "Point",
        "coordinates": [
          40.055676428679206,
          -1.600939401653225
        ]
      }
    }
  ]
}